OBJECT_NAME,OBJECT_ID,EPOCH,MEAN_MOTION,ECCENTRICITY,INCLINATION,RA_OF_ASC_NODE,ARG_OF_PERICENTER,MEAN_ANOMALY,EPHEMERIS_TYPE,CLASSIFICATION_TYPE,NORAD_CAT_ID,ELEMENT_SET_NO,REV_AT_EPOCH,BSTAR,MEAN_MOTION_DOT,MEAN_MOTION_DDOT
EYESAT A (AO-27),1993-061C,2026-07-05T04:19:15.787776,14.30947411,.00092412,98.6873,253.5864,53.0213,307.1814,0,U,22825,999,70957,.74236263E-4,.151E-5,0
ITAMSAT (IO-26),1993-061D,2026-07-05T03:41:53.060640,14.31374787,.00095225,98.6820,253.4798,37.5027,322.6818,0,U,22826,999,70988,.75456078E-4,.155E-5,0
RADIO ROSTO (RS15),1994-085A,2026-07-05T05:00:19.206432,11.27583530,.01565519,64.8175,274.0715,0.5463,359.5606,0,U,23439,999,29793,.37499152E-3,-.29E-6,0
JAS-2 (FO-29),1996-046B,2026-07-04T19:59:59.651520,13.53275006,.03507285,98.5226,32.2868,50.7729,312.3996,0,U,24278,999,47555,.11394872E-4,-.22E-6,0
FORTE,1997-047A,2026-07-04T16:15:06.454656,14.27952788,.00245679,69.9545,334.5145,256.2124,103.6264,0,U,24920,999,50118,.1301928E-3,.266E-5,0
TECHSAT 1B (GO-32),1998-043D,2026-07-05T04:29:22.214688,14.24432045,.00018711,99.0075,179.4002,130.7519,229.3822,0,U,25397,999,45389,.57629485E-4,.87E-6,0
ISS (ZARYA),1998-067A,2026-07-05T02:54:29.072448,15.48901138,.00067403,51.6302,211.3234,257.5366,102.4869,0,U,25544,999,57453,.18660962E-3,.9813E-4,0
IMAGE,2000-017A,2026-06-30T21:52:49.688544,1.68666270,.7422471,94.2398,315.5527,286.2504,9.4555,0,U,26113,999,16173,0,-.33E-6,0
CLUSTER II-FM7 (SAMBA),2000-041A,2026-07-07T05:13:52.745376,0.44837774,.9079263,149.8716,54.4790,271.8893,359.5006,0,U,26410,999,2039,0,.7566E-4,0
CLUSTER II-FM8 (TANGO),2000-045B,2026-07-03T04:43:24.837600,0.44420887,.90785547,150.1065,54.7656,272.0035,2.3073,0,U,26464,999,2038,0,.12165E-3,0
ODIN,2001-007A,2026-07-05T00:38:08.656512,15.83903540,.00053099,97.3753,228.2026,134.4495,225.7210,0,U,26702,999,39221,.19688952E-2,.458636E-2,0
OMNI-M1,2001-026A,2026-07-02T00:09:17.717184,3.92402003,.00137998,44.8270,241.8483,56.1769,304.0224,0,U,26857,999,20615,0,.7E-7,0
PCSAT (NO-44),2001-043C,2026-07-05T00:57:09.875232,14.31962418,.00060054,67.0487,198.0968,265.8306,94.2109,0,U,26931,999,29300,.89765062E-4,.158E-5,0
PROBA-1,2001-049B,2026-07-05T06:10:07.341888,15.07577807,.00562327,97.9595,195.4213,62.5747,298.1184,0,U,26958,999,34634,.19801059E-3,.305E-4,0
SAUDISAT 1C (SO-50),2002-058C,2026-07-04T16:29:59.668224,14.83086074,.0074817,64.5520,74.8394,259.1898,100.0781,0,U,27607,999,26705,.18211702E-3,.1404E-4,0
CORIOLIS,2003-001A,2026-07-05T00:35:44.144736,14.19949918,.00144391,98.7128,192.6373,157.0999,203.0824,0,U,27640,999,21675,.83337086E-4,.134E-5,0
CUTE-1 (CO-55),2003-031E,2026-07-05T00:29:40.228800,14.24347366,.00105291,98.6737,194.3551,129.0136,231.1982,0,U,27844,999,19421,.18868701E-3,.393E-5,0
CUBESAT XI-IV (CO-57),2003-031J,2026-07-04T22:44:44.423232,14.23630898,.00101029,98.6769,193.9817,146.4963,213.6856,0,U,27848,999,19390,.16663671E-3,.336E-5,0
MOZHAETS 4 (RS22),2003-042A,2026-07-05T08:30:17.255232,14.73499680,.00104745,98.3472,11.2262,205.5121,274.3612,0,U,27939,999,21822,.12886714E-3,.784E-5,0
